NORAD_CAT_ID,OBJECT_NAME,OBJECT_TYPE,EPOCH,MEAN_MOTION,ECCENTRICITY,INCLINATION,RA_OF_ASC_NODE,ARG_OF_PERICENTER,MEAN_ANOMALY,BSTAR,MEAN_MOTION_DOT,MEAN_MOTION_DDOT,TLE_LINE0,TLE_LINE1,TLE_LINE2,SEMIMAJOR_AXIS,PERIOD,APOGEE,PERIGEE,DECAYED
54079.0,STARLINK-5175,PAYLOAD,2024-01-19 23:54:08,15.08834435,0.0001712,53.2171,234.5228,66.2812,293.836,0.00019481,2.813e-05,0.0,0 STARLINK-5175,1 54079U 22136AE  24019.99593736  .00002813  00000-0  19481-3 0  9996,2 54079  53.2171 234.5228 0001712  66.2812 293.8360 15.08834435 69757,6917.897,95.438,540.947,538.578,0.0
54079.0,STARLINK-5175,PAYLOAD,2024-01-20 18:58:46,15.08839451,0.0001628,53.2171,230.955,108.894,251.2229,2.8263e-05,1.62e-06,0.0,0 STARLINK-5175,1 54079U 22136AE  24020.79081411  .00000162  00000-0  28263-4 0  9992,2 54079  53.2171 230.9550 0001628 108.8940 251.2229 15.08839451 69391,6917.882,95.438,540.873,538.621,0.0
54079.0,STARLINK-5175,PAYLOAD,2024-01-20 23:44:55,15.08837416,0.0001642,53.217,230.0638,110.8162,249.3006,4.251e-06,-2.2e-06,0.0,0 STARLINK-5175,1 54079U 22136AE  24020.98953578 -.00000220  00000-0  42510-5 0  9993,2 54079  53.2170 230.0638 0001642 110.8162 249.3006 15.08837416 69427,6917.888,95.438,540.889,538.617,0.0
54079.0,STARLINK-5175,PAYLOAD,2024-01-21 18:49:33,15.08840175,0.0001296,53.2161,226.4956,93.507,266.607,7.8844e-05,9.67e-06,0.0,0 STARLINK-5175,1 54079U 22136AE  24021.78441376  .00000967  00000-0  78844-4 0  9995,2 54079  53.2161 226.4956 0001296  93.5070 266.6070 15.08840175 70026,6917.88,95.438,540.641,538.848,0.0
54079.0,STARLINK-5175,PAYLOAD,2024-01-21 20:24:56,15.08840473,0.0001311,53.2159,226.1983,95.861,264.2532,8.0204e-05,9.89e-06,0.0,0 STARLINK-5175,1 54079U 22136AE  24021.85065302  .00000989  00000-0  80204-4 0  9991,2 54079  53.2159 226.1983 0001311  95.8610 264.2532 15.08840473 69557,6917.879,95.438,540.651,538.837,0.0
54079.0,STARLINK-5175,PAYLOAD,2024-01-21 23:35:42,15.0883982,0.0001312,53.2158,225.604,94.1863,265.9279,6.9799e-05,8.23e-06,0.0,0 STARLINK-5175,1 54079U 22136AE  24021.98313386  .00000823  00000-0  69799-4 0  9996,2 54079  53.2158 225.6040 0001312  94.1863 265.9279 15.08839820 69579,6917.881,95.438,540.654,538.838,0.0
54079.0,STARLINK-5175,PAYLOAD,2024-01-22 18:40:20,15.08840549,0.0001268,53.2155,222.0359,95.0262,265.0875,0.0001029,1.35e-05,0.0,0 STARLINK-5175,1 54079U 22136AE  24022.77801411  .00001350  00000-0  10290-3 0  9992,2 54079  53.2155 222.0359 0001268  95.0262 265.0875 15.08840549 69699,6917.879,95.438,540.621,538.867,0.0
54079.0,STARLINK-5175,PAYLOAD,2024-01-23 02:37:15,15.08843804,0.0001284,53.2152,220.5495,96.0908,264.023,0.00011922,1.61e-05,0.0,0 STARLINK-5175,1 54079U 22136AE  24023.10921090  .00001610  00000-0  11922-3 0  9998,2 54079  53.2152 220.5495 0001284  96.0908 264.0230 15.08843804 70228,6917.869,95.437,540.622,538.846,0.0
54079.0,STARLINK-5175,PAYLOAD,2024-01-23 04:12:39,15.0883575,0.0001292,53.2152,220.252,98.9846,261.1292,5.0909e-05,5.22e-06,0.0,0 STARLINK-5175,1 54079U 22136AE  24023.17545829  .00000522  00000-0  50909-4 0  9997,2 54079  53.2152 220.2520 0001292  98.9846 261.1292 15.08835750 70233,6917.893,95.438,540.652,538.865,0.0
54079.0,STARLINK-5175,PAYLOAD,2024-01-23 21:41:53,15.08843173,0.0001299,53.2154,216.9817,91.6883,268.4258,8.2432e-05,1.024e-05,0.0,0 STARLINK-5175,1 54079U 22136AE  24023.90409372  .00001024  00000-0  82432-4 0  9994,2 54079  53.2154 216.9817 0001299  91.6883 268.4258 15.08843173 69861,6917.871,95.437,540.634,538.837,0.0
54079.0,STARLINK-5175,PAYLOAD,2024-01-24 02:28:02,15.08844217,0.0001329,53.2141,216.0894,90.6582,269.4563,6.8661e-05,8.05e-06,0.0,0 STARLINK-5175,1 54079U 22136AE  24024.10281115  .00000805  00000-0  68661-4 0  9994,2 54079  53.2141 216.0894 0001329  90.6582 269.4563 15.08844217 70370,6917.867,95.437,540.652,538.813,0.0
54079.0,STARLINK-5175,PAYLOAD,2024-01-24 04:03:26,15.08833736,0.0001326,53.2138,215.792,93.2212,266.8931,-8.4228e-05,-1.628e-05,0.0,0 STARLINK-5175,1 54079U 22136AE  24024.16905601 -.00001628  00000-0 -84228-4 0  9996,2 54079  53.2138 215.7920 0001326  93.2212 266.8931 15.08833736 70383,6917.9,95.438,540.682,538.847,0.0
54079.0,STARLINK-5175,PAYLOAD,2024-01-24 13:35:45,15.08835132,0.000133,53.2139,214.0082,84.3696,275.7448,-4.9189e-05,-1.071e-05,0.0,0 STARLINK-5175,1 54079U 22136AE  24024.56649756 -.00001071  00000-0 -49189-4 0  9995,2 54079  53.2139 214.0082 0001330  84.3696 275.7448 15.08835132 69963,6917.895,95.438,540.68,538.84,0.0
54079.0,STARLINK-5175,PAYLOAD,2024-01-24 21:32:41,15.08838202,0.0001294,53.2141,212.5213,84.8353,275.2787,1.5456e-05,-4.2e-07,0.0,0 STARLINK-5175,1 54079U 22136AE  24024.89769693 -.00000042  00000-0  15456-4 0  9990,2 54079  53.2141 212.5213 0001294  84.8353 275.2787 15.08838202 70019,6917.886,95.438,540.646,538.856,0.0
54079.0,STARLINK-5175,PAYLOAD,2024-01-24 23:08:04,15.08838918,0.0001328,53.2142,212.2241,87.1908,272.9236,2.7893e-05,1.56e-06,0.0,0 STARLINK-5175,1 54079U 22136AE  24024.96393692  .00000156  00000-0  27893-4 0  9993,2 54079  53.2142 212.2241 0001328  87.1908 272.9236 15.08838918 70509,6917.884,95.438,540.667,538.83,0.0
54079.0,STARLINK-5175,PAYLOAD,2024-01-25 19:48:04,15.08847201,0.0001297,53.2143,208.3582,84.315,275.799,0.00023191,3.406e-05,0.0,0 STARLINK-5175,1 54079U 22136AE  24025.82505597  .00003406  00000-0  23191-3 0  9995,2 54079  53.2143 208.3582 0001297  84.3150 275.7990 15.08847201 70151,6917.858,95.437,540.621,538.826,0.0
54079.0,STARLINK-5175,PAYLOAD,2024-01-26 18:03:28,15.08844896,0.0001322,53.2139,204.1948,79.7895,280.3246,0.00024932,3.683e-05,0.0,0 STARLINK-5175,1 54079U 22136AE  24026.75241781  .00003683  00000-0  24932-3 0  9991,2 54079  53.2139 204.1948 0001322  79.7895 280.3246 15.08844896 70770,6917.865,95.437,540.645,538.816,0.0
54079.0,STARLINK-5175,PAYLOAD,2024-01-27 14:43:29,15.08843483,0.0001354,53.2146,200.3268,80.4125,279.702,0.00012921,1.769e-05,0.0,0 STARLINK-5175,1 54079U 22136AE  24027.61353740  .00001769  00000-0  12921-3 0  9994,2 54079  53.2146 200.3268 0001354  80.4125 279.7020 15.08843483 70426,6917.87,95.437,540.671,538.798,0.0
54079.0,STARLINK-5175,PAYLOAD,2024-01-27 17:54:15,15.08844272,0.0001338,53.2151,199.7319,81.054,279.0604,0.00010541,1.39e-05,0.0,0 STARLINK-5175,1 54079U 22136AE  24027.74601703  .00001390  00000-0  10541-3 0  9999,2 54079  53.2151 199.7319 0001338  81.0540 279.0604 15.08844272 70923,6917.867,95.437,540.658,538.807,0.0
54079.0,STARLINK-5175,PAYLOAD,2024-01-27 21:05:02,15.08843489,0.0001339,53.215,199.1374,80.9611,279.1533,8.2643e-05,1.028e-05,0.0,0 STARLINK-5175,1 54079U 22136AE  24027.87849658  .00001028  00000-0  82643-4 0  9997,2 54079  53.2150 199.1374 0001339  80.9611 279.1533 15.08843489 70465,6917.87,95.437,540.661,538.808,0.0
54079.0,STARLINK-5175,PAYLOAD,2024-01-28 11:23:30,15.08838149,0.0001427,53.2158,196.46,95.2568,264.8587,5.8872e-05,6.49e-06,0.0,0 STARLINK-5175,1 54079U 22136AE  24028.47465927  .00000649  00000-0  58872-4 0  9992,2 54079  53.2158 196.4600 0001427  95.2568 264.8587 15.08838149 71034,6917.886,95.438,540.738,538.764,0.0
54079.0,STARLINK-5175,PAYLOAD,2024-01-28 14:34:16,15.08840374,0.0001409,53.2163,195.8664,103.6406,256.4743,7.877e-05,9.66e-06,0.0,0 STARLINK-5175,1 54079U 22136AE  24028.60713786  .00000966  00000-0  78770-4 0  9997,2 54079  53.2163 195.8664 0001409 103.6406 256.4743 15.08840374 70570,6917.879,95.438,540.719,538.77,0.0
54079.0,STARLINK-5175,PAYLOAD,2024-01-28 17:45:02,15.08840518,0.0001392,53.2165,195.2718,102.5744,257.5404,7.0438e-05,8.33e-06,0.0,0 STARLINK-5175,1 54079U 22136AE  24028.73961767  .00000833  00000-0  70438-4 0  9991,2 54079  53.2165 195.2718 0001392 102.5744 257.5404 15.08840518 70598,6917.879,95.438,540.707,538.781,0.0
54079.0,STARLINK-5175,PAYLOAD,2024-01-30 09:29:41,15.08840007,0.0001323,53.2165,187.8402,98.9531,261.161,0.00011214,1.497e-05,0.0,0 STARLINK-5175,1 54079U 22136AE  24030.39561848  .00001497  00000-0  11214-3 0  9995,2 54079  53.2165 187.8402 0001323  98.9531 261.1610 15.08840007 71326,6917.88,95.438,540.661,538.83,0.0
54079.0,STARLINK-5175,PAYLOAD,2024-01-30 14:15:51,15.08838406,0.0001193,53.2158,186.9444,91.7953,268.3175,5.0367e-05,5.14e-06,0.0,0 STARLINK-5175,1 54079U 22136AE  24030.59434161  .00000514  00000-0  50367-4 0  9996,2 54079  53.2158 186.9444 0001193  91.7953 268.3175 15.08838406 70872,6917.885,95.438,540.576,538.925,0.0
54079.0,STARLINK-5175,PAYLOAD,2024-01-30 15:51:14,15.088376,0.0001193,53.216,186.6473,93.9485,266.1644,3.9308e-05,3.38e-06,0.0,0 STARLINK-5175,1 54079U 22136AE  24030.66058224  .00000338  00000-0  39308-4 0  9992,2 54079  53.2160 186.6473 0001193  93.9485 266.1644 15.08837600 70881,6917.888,95.438,540.578,538.927,0.0
54079.0,STARLINK-5175,PAYLOAD,2024-01-31 18:52:47,15.08839209,0.0001282,53.2165,181.5921,89.7156,270.3983,3.0095e-05,1.91e-06,0.0,0 STARLINK-5175,1 54079U 22136AE  24031.78666243  .00000191  00000-0  30095-4 0  9993,2 54079  53.2165 181.5921 0001282  89.7156 270.3983 15.08839209 71538,6917.883,95.438,540.635,538.861,0.0
54079.0,STARLINK-5175,PAYLOAD,2024-02-02 13:48:12,15.08841977,0.0001368,53.2175,173.5631,102.8078,257.3067,6.0375e-05,6.73e-06,0.0,0 STARLINK-5175,1 54079U 22136AE  24033.57514224  .00000673  00000-0  60375-4 0  9992,2 54079  53.2175 173.5631 0001368 102.8078 257.3067 15.08841977 71323,6917.874,95.437,540.686,538.793,0.0
54079.0,STARLINK-5175,PAYLOAD,2024-02-02 18:34:21,15.0884533,0.0001853,53.2186,172.6701,59.192,300.9254,0.00013648,1.885e-05,0.0,0 STARLINK-5175,1 54079U 22136AE  24033.77386182  .00001885  00000-0  13648-3 0  9990,2 54079  53.2186 172.6701 0001853  59.1920 300.9254 15.08845330 71838,6917.864,95.437,541.011,538.447,0.0
54079.0,STARLINK-5175,PAYLOAD,2024-02-03 13:38:59,15.08849253,0.0001742,53.2179,169.1066,128.0483,232.0667,-3.686e-05,-8.75e-06,0.0,0 STARLINK-5175,1 54079U 22136AE  24034.56874628 -.00000875  00000-0 -36860-4 0  9997,2 54079  53.2179 169.1066 0001742 128.0483 232.0667 15.08849253 71473,6917.852,95.437,540.922,538.512,0.0
